NORAD_CAT_ID,OBJECT_NAME,OBJECT_TYPE,EPOCH,MEAN_MOTION,ECCENTRICITY,INCLINATION,RA_OF_ASC_NODE,ARG_OF_PERICENTER,MEAN_ANOMALY,BSTAR,MEAN_MOTION_DOT,MEAN_MOTION_DDOT,TLE_LINE0,TLE_LINE1,TLE_LINE2,SEMIMAJOR_AXIS,PERIOD,APOGEE,PERIGEE,DECAYED
52695.0,STARLINK-4041,PAYLOAD,2024-01-31 04:08:25,15.08842548,0.0001839,53.2194,358.9227,116.5589,243.5592,-5.6072e-05,-1.18e-05,0.0,0 STARLINK-4041,1 52695U 22053AR  24031.17251247 -.00001180  00000-0 -56072-4 0  9994,2 52695  53.2194 358.9227 0001839 116.5589 243.5592 15.08842548 94665,6917.873,95.437,541.01,538.465,0.0
52695.0,STARLINK-4041,PAYLOAD,2024-02-01 03:59:12,15.08848037,0.0001498,53.2186,354.4648,96.1247,263.9916,-4.5509e-05,-1.012e-05,0.0,0 STARLINK-4041,1 52695U 22053AR  24032.16611122 -.00001012  00000-0 -45509-4 0  9993,2 52695  53.2186 354.4648 0001498  96.1247 263.9916 15.08848037 95227,6917.856,95.437,540.757,538.685,0.0
52695.0,STARLINK-4041,PAYLOAD,2024-02-01 21:28:26,15.0883955,0.0001591,53.2193,351.1923,95.6625,264.4549,4.1961e-05,3.8e-06,0.0,0 STARLINK-4041,1 52695U 22053AR  24032.89475329  .00000380  00000-0  41961-4 0  9993,2 52695  53.2193 351.1923 0001591  95.6625 264.4549 15.08839550 94927,6917.882,95.438,540.847,538.646,0.0
52695.0,STARLINK-4041,PAYLOAD,2024-02-02 07:00:45,15.08844666,0.0001608,53.2192,349.4075,93.5054,266.6122,7.2615e-05,8.68e-06,0.0,0 STARLINK-4041,1 52695U 22053AR  24033.29218863  .00000868  00000-0  72615-4 0  9997,2 52695  53.2192 349.4075 0001608  93.5054 266.6122 15.08844666 95393,6917.866,95.437,540.844,538.619,0.0
52695.0,STARLINK-4041,PAYLOAD,2024-02-03 03:40:46,15.08837245,0.0001628,53.2194,345.5372,102.0447,258.0728,1.3019e-05,-8.1e-07,0.0,0 STARLINK-4041,1 52695U 22053AR  24034.15331601 -.00000081  00000-0  13019-4 0  9990,2 52695  53.2194 345.5372 0001628 102.0447 258.0728 15.08837245 95118,6917.889,95.438,540.88,538.628,0.0
52695.0,STARLINK-4041,PAYLOAD,2024-02-04 05:06:56,15.08854564,0.0001534,53.2197,340.7878,97.7406,262.376,-0.00012326,-2.25e-05,0.0,0 STARLINK-4041,1 52695U 22053AR  24035.21315210 -.00002250  00000-0 -12326-3 0  9996,2 52695  53.2197 340.7878 0001534  97.7406 262.3760 15.08854564 95274,6917.836,95.437,540.762,538.64,0.0
52695.0,STARLINK-4041,PAYLOAD,2024-02-05 03:22:20,15.08844737,0.0001461,53.2192,336.6239,90.0602,270.0558,3.9102e-05,3.34e-06,0.0,0 STARLINK-4041,1 52695U 22053AR  24036.14051512  .00000334  00000-0  39102-4 0  9992,2 52695  53.2192 336.6239 0001461  90.0602 270.0558 15.08844737 95415,6917.866,95.437,540.742,538.72,0.0
52695.0,STARLINK-4041,PAYLOAD,2024-02-06 03:13:07,15.088435,0.0001755,53.2203,332.1635,68.6761,291.4418,6.9031e-05,8.11e-06,0.0,0 STARLINK-4041,1 52695U 22053AR  24037.13411687  .00000811  00000-0  69031-4 0  9999,2 52695  53.2203 332.1635 0001755  68.6761 291.4418 15.08843500 95567,6917.87,95.437,540.949,538.521,0.0
52695.0,STARLINK-4041,PAYLOAD,2024-02-07 03:03:54,15.08847944,0.0002255,53.2204,327.6995,59.0659,301.0555,6.1476e-05,6.9e-06,0.0,0 STARLINK-4041,1 52695U 22053AR  24038.12771525  .00000690  00000-0  61476-4 0  9999,2 52695  53.2204 327.6995 0002255  59.0659 301.0555 15.08847944 96121,6917.856,95.437,541.281,538.161,0.0
52695.0,STARLINK-4041,PAYLOAD,2024-02-08 01:19:19,15.08836058,0.0002137,53.2199,323.5385,63.7651,296.356,-3.8221e-05,-8.96e-06,0.0,0 STARLINK-4041,1 52695U 22053AR  24039.05508779 -.00000896  00000-0 -38221-4 0  9993,2 52695  53.2199 323.5385 0002137  63.7651 296.3560 15.08836058 95850,6917.892,95.438,541.236,538.279,0.0
52695.0,STARLINK-4041,PAYLOAD,2024-02-08 04:30:05,15.08838008,0.0002159,53.2206,322.938,64.7624,295.3592,-2.2971e-05,-6.54e-06,0.0,0 STARLINK-4041,1 52695U 22053AR  24039.18756618 -.00000654  00000-0 -22971-4 0  9991,2 52695  53.2206 322.9380 0002159  64.7624 295.3592 15.08838008 96281,6917.886,95.438,541.245,538.258,0.0
52695.0,STARLINK-4041,PAYLOAD,2024-02-08 21:59:19,15.08845721,0.0001545,53.2185,319.6677,80.2154,279.9012,-1.8961e-05,-5.9e-06,0.0,0 STARLINK-4041,1 52695U 22053AR  24039.91619980 -.00000590  00000-0 -18961-4 0  9995,2 52695  53.2185 319.6677 0001545  80.2154 279.9012 15.08845721 96395,6917.863,95.437,540.797,538.659,0.0
52695.0,STARLINK-4041,PAYLOAD,2024-02-08 23:34:42,15.08849466,0.0001654,53.2197,319.3711,96.6058,263.5122,-2.4646e-05,-6.8e-06,0.0,0 STARLINK-4041,1 52695U 22053AR  24039.98243725 -.00000680  00000-0 -24646-4 0  9999,2 52695  53.2197 319.3711 0001654  96.6058 263.5122 15.08849466 95995,6917.851,95.437,540.861,538.572,0.0
52695.0,STARLINK-4041,PAYLOAD,2024-02-09 18:39:21,15.08837125,0.0001788,53.2205,315.8097,99.5155,260.6039,-3.1895e-06,-3.39e-06,0.0,0 STARLINK-4041,1 52695U 22053AR  24040.77732743 -.00000339  00000-0 -31895-5 0  9997,2 52695  53.2205 315.8097 0001788  99.5155 260.6039 15.08837125 96110,6917.889,95.438,540.991,538.517,0.0
52695.0,STARLINK-4041,PAYLOAD,2024-02-10 04:11:39,15.08837981,0.0001332,53.2183,314.0204,105.9365,254.1774,3.3355e-05,2.43e-06,0.0,0 STARLINK-4041,1 52695U 22053AR  24041.17476604  .00000243  00000-0  33355-4 0  9997,2 52695  53.2183 314.0204 0001332 105.9365 254.1774 15.08837981 96581,6917.887,95.438,540.673,538.83,0.0
52695.0,STARLINK-4041,PAYLOAD,2024-02-10 21:40:54,15.0885578,0.0001252,53.2179,310.7504,104.6883,255.4248,-0.00015715,-2.789e-05,0.0,0 STARLINK-4041,1 52695U 22053AR  24041.90340512 -.00002789  00000-0 -15715-3 0  9994,2 52695  53.2179 310.7504 0001252 104.6883 255.4248 15.08855780 96693,6917.832,95.437,540.563,538.831,0.0
52695.0,STARLINK-4041,PAYLOAD,2024-02-11 00:51:40,15.088404,0.0001422,53.2184,310.1558,106.4581,253.6567,0.00010856,1.44e-05,0.0,0 STARLINK-4041,1 52695U 22053AR  24042.03588505  .00001440  00000-0  10856-3 0  9997,2 52695  53.2184 310.1558 0001422 106.4581 253.6567 15.08840400 96301,6917.879,95.438,540.728,538.76,0.0
52695.0,STARLINK-4041,PAYLOAD,2024-02-11 21:31:41,15.08848135,0.0001395,53.2182,306.2901,111.126,248.9881,-2.6885e-05,-7.16e-06,0.0,0 STARLINK-4041,1 52695U 22053AR  24042.89700467 -.00000716  00000-0 -26885-4 0  9991,2 52695  53.2182 306.2901 0001395 111.1260 248.9881 15.08848135 96841,6917.856,95.437,540.686,538.755,0.0
52695.0,STARLINK-4041,PAYLOAD,2024-02-12 02:17:49,15.08849863,0.0001116,53.219,305.3995,101.6903,258.4215,0.0001879,2.705e-05,0.0,0 STARLINK-4041,1 52695U 22053AR  24043.09571705  .00002705  00000-0  18790-3 0  9998,2 52695  53.2190 305.3995 0001116 101.6903 258.4215 15.08849863 96466,6917.85,95.437,540.487,538.943,0.0
52695.0,STARLINK-4041,PAYLOAD,2024-02-12 03:53:12,15.08852588,0.0001153,53.2187,305.0994,106.9501,253.1617,0.0002001,2.899e-05,0.0,0 STARLINK-4041,1 52695U 22053AR  24043.16195545  .00002899  00000-0  20010-3 0  9992,2 52695  53.2187 305.0994 0001153 106.9501 253.1617 15.08852588 96883,6917.842,95.437,540.505,538.909,0.0
52695.0,STARLINK-4041,PAYLOAD,2024-02-12 21:22:28,15.0883843,0.000144,53.2172,301.8284,110.3124,249.8023,-2.0549e-05,-6.15e-06,0.0,0 STARLINK-4041,1 52695U 22053AR  24043.89061114 -.00000615  00000-0 -20549-4 0  9990,2 52695  53.2172 301.8284 0001440 110.3124 249.8023 15.08838430 96997,6917.885,95.438,540.746,538.754,0.0
52695.0,STARLINK-4041,PAYLOAD,2024-02-13 02:08:37,15.08840934,0.0001152,53.2171,300.9354,109.0709,251.0408,-1.1237e-05,-4.67e-06,0.0,0 STARLINK-4041,1 52695U 22053AR  24044.08932856 -.00000467  00000-0 -11237-4 0  9991,2 52695  53.2171 300.9354 0001152 109.0709 251.0408 15.08840934 96611,6917.878,95.437,540.539,538.946,0.0
52695.0,STARLINK-4041,PAYLOAD,2024-02-13 10:05:31,15.08867678,9.81e-05,53.2176,299.4528,104.9644,255.1457,0.00025265,3.738e-05,0.0,0 STARLINK-4041,1 52695U 22053AR  24044.42050131  .00003738  00000-0  25265-3 0  9993,2 52695  53.2176 299.4528 0000981 104.9644 255.1457 15.08867678 96660,6917.796,95.436,540.339,538.982,0.0
52695.0,STARLINK-4041,PAYLOAD,2024-02-13 22:48:37,15.08847956,0.000116,53.2175,297.0729,110.4766,249.6351,-0.00011591,-2.132e-05,0.0,0 STARLINK-4041,1 52695U 22053AR  24044.95043696 -.00002132  00000-0 -11591-3 0  9995,2 52695  53.2175 297.0729 0001160 110.4766 249.6351 15.08847956 97156,6917.856,95.437,540.524,538.919,0.0
52695.0,STARLINK-4041,PAYLOAD,2024-02-14 00:24:00,15.08846711,0.0001159,53.2177,296.7756,104.3251,255.7869,-0.00012319,-2.248e-05,0.0,0 STARLINK-4041,1 52695U 22053AR  24045.01667791 -.00002248  00000-0 -12319-3 0  9998,2 52695  53.2177 296.7756 0001159 104.3251 255.7869 15.08846711 96758,6917.86,95.437,540.527,538.923,0.0
52695.0,STARLINK-4041,PAYLOAD,2024-02-14 09:56:20,15.08838644,0.0001265,53.2179,294.9915,101.0837,259.0297,-0.00016681,-2.942e-05,0.0,0 STARLINK-4041,1 52695U 22053AR  24045.41412334 -.00002942  00000-0 -16681-3 0  9990,2 52695  53.2179 294.9915 0001265 101.0837 259.0297 15.08838644 96814,6917.885,95.438,540.625,538.874,0.0
52695.0,STARLINK-4041,PAYLOAD,2024-02-14 22:39:26,15.08829308,0.0001201,53.2167,292.6121,104.0711,256.0415,-5.0599e-05,-1.093e-05,0.0,0 STARLINK-4041,1 52695U 22053AR  24045.94405112 -.00001093  00000-0 -50599-4 0  9997,2 52695  53.2167 292.6121 0001201 104.0711 256.0415 15.08829308 97300,6917.913,95.438,540.609,538.947,0.0
52695.0,STARLINK-4041,PAYLOAD,2024-02-15 01:50:11,15.08836047,0.0001403,53.2179,292.0149,105.0393,255.0755,1.2496e-05,-8.9e-07,0.0,0 STARLINK-4041,1 52695U 22053AR  24046.07652556 -.00000089  00000-0  12496-4 0  9995,2 52695  53.2179 292.0149 0001403 105.0393 255.0755 15.08836047 97324,6917.892,95.438,540.728,538.787,0.0
52695.0,STARLINK-4041,PAYLOAD,2024-02-15 19:19:26,15.0883696,0.0001314,53.219,288.7437,114.2041,245.9088,-0.0001332,-2.407e-05,0.0,0 STARLINK-4041,1 52695U 22053AR  24046.80516882 -.00002407  00000-0 -13320-3 0  9990,2 52695  53.2190 288.7437 0001314 114.2041 245.9088 15.08836960 97020,6917.89,95.438,540.664,538.846,0.0
52695.0,STARLINK-4041,PAYLOAD,2024-02-15 22:30:13,15.08824946,0.000135,53.2177,288.1518,91.0787,269.036,5.5593e-05,5.97e-06,0.0,0 STARLINK-4041,1 52695U 22053AR  24046.93765140  .00000597  00000-0  55593-4 0  9992,2 52695  53.2177 288.1518 0001350  91.0787 269.0360 15.08824946 97456,6917.926,95.439,540.725,538.857,0.0
